DELTA 2 R/B(1)          
1 20453U 90008B   25349.72256287  .00032051  00000+0  50923-3 0  9995
2 20453  35.6078   1.2691 0111270 205.7509 153.7655 15.45467931913093
COSMOS 2058             
1 20465U 90010A   25349.87148797  .00004292  00000+0  25875-3 0  9997
2 20465  82.4673 129.9494 0008490 259.8417 100.1856 15.10502643929585
SL-14 R/B               
1 20466U 90010B   25349.98310021  .00000453  00000+0  52151-4 0  9994
2 20466  82.5020 346.0008 0018945 211.8792 148.1278 14.83474315916079
SL-14 R/B               
1 20511U 90018B   25349.92043222  .00000505  00000+0  60464-4 0  9997
2 20511  82.5212 301.3915 0016758  13.2536 346.9115 14.82050015910173
HST                     
1 20580U 90037B   25349.92697688  .00005667  00000+0  19308-3 0  9999
2 20580  28.4681 250.7951 0001830 280.0887  79.9502 15.28099791760488
SL-16 R/B               
1 20625U 90046B   25349.78568087 -.00000207  00000+0 -82404-4 0  9998
2 20625  70.9991 114.1247 0011879  67.6643 292.5738 14.15000653836525
COSMOS 2084             
1 20663U 90055A   25349.95657131  .00002282  00000+0  17252-3 0  9999
2 20663  62.7903 261.0319 0031224 175.0793 185.0621 15.05039777923711
SL-6 R/B(2)             
1 20666U 90055D   25349.89414017  .00001570  00000+0  13029-3 0  9996
2 20666  62.7819 178.6975 0013038 311.2466  48.7509 15.03089722925596
SL-8 R/B                
1 20775U 90078B   25349.96317173  .00017474  00000+0  54046-3 0  9999
2 20775  82.9045 326.4249 0371439 295.0480  61.2606 14.86078309796858
SL-8 R/B                
1 21088U 91006B   25349.80326325  .00000077  00000+0  62459-4 0  9990
2 21088  82.9424 232.4343 0021182 270.7445 158.8291 13.77490430752527
OKEAN-3                 
1 21397U 91039A   25349.94192271  .00003228  00000+0  23050-3 0  9999
2 21397  82.5178  57.9483 0013188 254.3658 105.6114 15.04142488852443
COSMOS 2151             
1 21422U 91042A   25349.95931766  .00001860  00000+0  14848-3 0  9998
2 21422  82.4957 164.4004 0012320 348.9676  11.1276 14.99698611850643
