CCSDS_OMM_VERS = 2.0
CREATION_DATE  = 
ORIGINATOR     = 

OBJECT_NAME    = DELTA 2 R/B(1)
OBJECT_ID      = 1990-008B
CENTER_NAME    = EARTH
REF_FRAME      = TEME
TIME_SYSTEM    = UTC
MEAN_ELEMENT_THEORY = SGP/SGP4

EPOCH          = 2025-12-15T17:20:29.431968
MEAN_MOTION    = 15.45467931
ECCENTRICITY   = .01112706
INCLINATION    = 35.6078
RA_OF_ASC_NODE = 1.2691
ARG_OF_PERICENTER = 205.7509
MEAN_ANOMALY   = 153.7655

EPHEMERIS_TYPE = 0
CLASSIFICATION_TYPE = U
NORAD_CAT_ID   = 20453
ELEMENT_SET_NO = 999
REV_AT_EPOCH   = 91309
BSTAR          = .50922951E-3
MEAN_MOTION_DOT = .32051E-3
MEAN_MOTION_DDOT = 0

CCSDS_OMM_VERS = 2.0
CREATION_DATE  = 
ORIGINATOR     = 

OBJECT_NAME    = COSMOS 2058
OBJECT_ID      = 1990-010A
CENTER_NAME    = EARTH
REF_FRAME      = TEME
TIME_SYSTEM    = UTC
MEAN_ELEMENT_THEORY = SGP/SGP4

EPOCH          = 2025-12-15T20:54:56.560608
MEAN_MOTION    = 15.10502643
ECCENTRICITY   = .00084907
INCLINATION    = 82.4673
RA_OF_ASC_NODE = 129.9494
ARG_OF_PERICENTER = 259.8417
MEAN_ANOMALY   = 100.1856

EPHEMERIS_TYPE = 0
CLASSIFICATION_TYPE = U
NORAD_CAT_ID   = 20465
ELEMENT_SET_NO = 999
REV_AT_EPOCH   = 92958
BSTAR          = .25875432E-3
MEAN_MOTION_DOT = .4292E-4
MEAN_MOTION_DDOT = 0

CCSDS_OMM_VERS = 2.0
CREATION_DATE  = 
ORIGINATOR     = 

OBJECT_NAME    = SL-14 R/B
OBJECT_ID      = 1990-010B
CENTER_NAME    = EARTH
REF_FRAME      = TEME
TIME_SYSTEM    = UTC
MEAN_ELEMENT_THEORY = SGP/SGP4

EPOCH          = 2025-12-15T23:35:39.858144
MEAN_MOTION    = 14.83474315
ECCENTRICITY   = .00189451
INCLINATION    = 82.5020
RA_OF_ASC_NODE = 346.0008
ARG_OF_PERICENTER = 211.8792
MEAN_ANOMALY   = 148.1278

EPHEMERIS_TYPE = 0
CLASSIFICATION_TYPE = U
NORAD_CAT_ID   = 20466
ELEMENT_SET_NO = 999
REV_AT_EPOCH   = 91607
BSTAR          = .52150588E-4
MEAN_MOTION_DOT = .453E-5
MEAN_MOTION_DDOT = 0

CCSDS_OMM_VERS = 2.0
CREATION_DATE  = 
ORIGINATOR     = 

OBJECT_NAME    = SL-14 R/B
OBJECT_ID      = 1990-018B
CENTER_NAME    = EARTH
REF_FRAME      = TEME
TIME_SYSTEM    = UTC
MEAN_ELEMENT_THEORY = SGP/SGP4

EPOCH          = 2025-12-15T22:05:25.343808
MEAN_MOTION    = 14.82050015
ECCENTRICITY   = .00167583
INCLINATION    = 82.5212
RA_OF_ASC_NODE = 301.3915
ARG_OF_PERICENTER = 13.2536
MEAN_ANOMALY   = 346.9115

EPHEMERIS_TYPE = 0
CLASSIFICATION_TYPE = U
NORAD_CAT_ID   = 20511
ELEMENT_SET_NO = 999
REV_AT_EPOCH   = 91017
BSTAR          = .60464494E-4
MEAN_MOTION_DOT = .505E-5
MEAN_MOTION_DDOT = 0

CCSDS_OMM_VERS = 2.0
CREATION_DATE  = 
ORIGINATOR     = 

OBJECT_NAME    = HST
OBJECT_ID      = 1990-037B
CENTER_NAME    = EARTH
REF_FRAME      = TEME
TIME_SYSTEM    = UTC
MEAN_ELEMENT_THEORY = SGP/SGP4

EPOCH          = 2025-12-15T22:14:50.802432
MEAN_MOTION    = 15.28099791
ECCENTRICITY   = .00018307
INCLINATION    = 28.4681
RA_OF_ASC_NODE = 250.7951
ARG_OF_PERICENTER = 280.0887
MEAN_ANOMALY   = 79.9502

EPHEMERIS_TYPE = 0
CLASSIFICATION_TYPE = U
NORAD_CAT_ID   = 20580
ELEMENT_SET_NO = 999
REV_AT_EPOCH   = 76048
BSTAR          = .19307852E-3
MEAN_MOTION_DOT = .5667E-4
MEAN_MOTION_DDOT = 0

CCSDS_OMM_VERS = 2.0
CREATION_DATE  = 
ORIGINATOR     = 

OBJECT_NAME    = SL-16 R/B
OBJECT_ID      = 1990-046B
CENTER_NAME    = EARTH
REF_FRAME      = TEME
TIME_SYSTEM    = UTC
MEAN_ELEMENT_THEORY = SGP/SGP4

EPOCH          = 2025-12-15T18:51:22.827168
MEAN_MOTION    = 14.15000653
ECCENTRICITY   = .00118793
INCLINATION    = 70.9991
RA_OF_ASC_NODE = 114.1247
ARG_OF_PERICENTER = 67.6643
MEAN_ANOMALY   = 292.5738

EPHEMERIS_TYPE = 0
CLASSIFICATION_TYPE = U
NORAD_CAT_ID   = 20625
ELEMENT_SET_NO = 999
REV_AT_EPOCH   = 83652
BSTAR          = -.82403942E-4
MEAN_MOTION_DOT = -.207E-5
MEAN_MOTION_DDOT = 0

CCSDS_OMM_VERS = 2.0
CREATION_DATE  = 
ORIGINATOR     = 

OBJECT_NAME    = COSMOS 2084
OBJECT_ID      = 1990-055A
CENTER_NAME    = EARTH
REF_FRAME      = TEME
TIME_SYSTEM    = UTC
MEAN_ELEMENT_THEORY = SGP/SGP4

EPOCH          = 2025-12-15T22:57:27.761184
MEAN_MOTION    = 15.05039777
ECCENTRICITY   = .0031224
INCLINATION    = 62.7903
RA_OF_ASC_NODE = 261.0319
ARG_OF_PERICENTER = 175.0793
MEAN_ANOMALY   = 185.0621

EPHEMERIS_TYPE = 0
CLASSIFICATION_TYPE = U
NORAD_CAT_ID   = 20663
ELEMENT_SET_NO = 999
REV_AT_EPOCH   = 92371
BSTAR          = .17251513E-3
MEAN_MOTION_DOT = .2282E-4
MEAN_MOTION_DDOT = 0

CCSDS_OMM_VERS = 2.0
CREATION_DATE  = 
ORIGINATOR     = 

OBJECT_NAME    = SL-6 R/B(2)
OBJECT_ID      = 1990-055D
CENTER_NAME    = EARTH
REF_FRAME      = TEME
TIME_SYSTEM    = UTC
MEAN_ELEMENT_THEORY = SGP/SGP4

EPOCH          = 2025-12-15T21:27:33.710688
MEAN_MOTION    = 15.03089722
ECCENTRICITY   = .00130387
INCLINATION    = 62.7819
RA_OF_ASC_NODE = 178.6975
ARG_OF_PERICENTER = 311.2466
MEAN_ANOMALY   = 48.7509

EPHEMERIS_TYPE = 0
CLASSIFICATION_TYPE = U
NORAD_CAT_ID   = 20666
ELEMENT_SET_NO = 999
REV_AT_EPOCH   = 92559
BSTAR          = .13029274E-3
MEAN_MOTION_DOT = .157E-4
MEAN_MOTION_DDOT = 0

CCSDS_OMM_VERS = 2.0
CREATION_DATE  = 
ORIGINATOR     = 

OBJECT_NAME    = SL-8 R/B
OBJECT_ID      = 1990-078B
CENTER_NAME    = EARTH
REF_FRAME      = TEME
TIME_SYSTEM    = UTC
MEAN_ELEMENT_THEORY = SGP/SGP4

EPOCH          = 2025-12-15T23:06:58.037472
MEAN_MOTION    = 14.86078309
ECCENTRICITY   = .03714399
INCLINATION    = 82.9045
RA_OF_ASC_NODE = 326.4249
ARG_OF_PERICENTER = 295.0480
MEAN_ANOMALY   = 61.2606

EPHEMERIS_TYPE = 0
CLASSIFICATION_TYPE = U
NORAD_CAT_ID   = 20775
ELEMENT_SET_NO = 999
REV_AT_EPOCH   = 79685
BSTAR          = .54046356E-3
MEAN_MOTION_DOT = .17474E-3
MEAN_MOTION_DDOT = 0

CCSDS_OMM_VERS = 2.0
CREATION_DATE  = 
ORIGINATOR     = 

OBJECT_NAME    = SL-8 R/B
OBJECT_ID      = 1991-006B
CENTER_NAME    = EARTH
REF_FRAME      = TEME
TIME_SYSTEM    = UTC
MEAN_ELEMENT_THEORY = SGP/SGP4

EPOCH          = 2025-12-15T19:16:41.944800
MEAN_MOTION    = 13.77490430
ECCENTRICITY   = .0021182
INCLINATION    = 82.9424
RA_OF_ASC_NODE = 232.4343
ARG_OF_PERICENTER = 270.7445
MEAN_ANOMALY   = 158.8291

EPHEMERIS_TYPE = 0
CLASSIFICATION_TYPE = U
NORAD_CAT_ID   = 21088
ELEMENT_SET_NO = 999
REV_AT_EPOCH   = 75252
BSTAR          = .62458687E-4
MEAN_MOTION_DOT = .77E-6
MEAN_MOTION_DDOT = 0

CCSDS_OMM_VERS = 2.0
CREATION_DATE  = 
ORIGINATOR     = 

OBJECT_NAME    = OKEAN-3
OBJECT_ID      = 1991-039A
CENTER_NAME    = EARTH
REF_FRAME      = TEME
TIME_SYSTEM    = UTC
MEAN_ELEMENT_THEORY = SGP/SGP4

EPOCH          = 2025-12-15T22:36:22.122144
MEAN_MOTION    = 15.04142488
ECCENTRICITY   = .0013188
INCLINATION    = 82.5178
RA_OF_ASC_NODE = 57.9483
ARG_OF_PERICENTER = 254.3658
MEAN_ANOMALY   = 105.6114

EPHEMERIS_TYPE = 0
CLASSIFICATION_TYPE = U
NORAD_CAT_ID   = 21397
ELEMENT_SET_NO = 999
REV_AT_EPOCH   = 85244
BSTAR          = .23050414E-3
MEAN_MOTION_DOT = .3228E-4
MEAN_MOTION_DDOT = 0

CCSDS_OMM_VERS = 2.0
CREATION_DATE  = 
ORIGINATOR     = 

OBJECT_NAME    = COSMOS 2151
OBJECT_ID      = 1991-042A
CENTER_NAME    = EARTH
REF_FRAME      = TEME
TIME_SYSTEM    = UTC
MEAN_ELEMENT_THEORY = SGP/SGP4

EPOCH          = 2025-12-15T23:01:25.045824
MEAN_MOTION    = 14.99698611
ECCENTRICITY   = .00123205
INCLINATION    = 82.4957
RA_OF_ASC_NODE = 164.4004
ARG_OF_PERICENTER = 348.9676
MEAN_ANOMALY   = 11.1276

EPHEMERIS_TYPE = 0
CLASSIFICATION_TYPE = U
NORAD_CAT_ID   = 21422
ELEMENT_SET_NO = 999
REV_AT_EPOCH   = 85064
BSTAR          = .14847827E-3
MEAN_MOTION_DOT = .186E-4
MEAN_MOTION_DDOT = 0

